NORAD_CAT_ID,OBJECT_NAME,OBJECT_TYPE,EPOCH,MEAN_MOTION,ECCENTRICITY,INCLINATION,RA_OF_ASC_NODE,ARG_OF_PERICENTER,MEAN_ANOMALY,BSTAR,MEAN_MOTION_DOT,MEAN_MOTION_DDOT,TLE_LINE0,TLE_LINE1,TLE_LINE2,SEMIMAJOR_AXIS,PERIOD,APOGEE,PERIGEE,DECAYED
53637.0,STARLINK-4396,PAYLOAD,2022-10-25 22:00:01,15.73218014,0.0003659,53.2136,357.0335,24.2541,228.1003,0.00030631,0.0004263,0.0,0 STARLINK-4396,1 53637U 22104BB  22298.91668981  .00042630  00000-0  30631-3 0  9995,2 53637  53.2136 357.0335 0003659  24.2541 228.1003 15.73218014  1305,6727.844,91.532,352.171,347.247,0.0
53637.0,STARLINK-4396,PAYLOAD,2022-10-26 14:00:01,15.73200537,0.0003795,53.2137,353.7361,21.3125,48.9393,0.00071151,0.00100467,0.0,0 STARLINK-4396,1 53637U 22104BB  22299.58334491  .00100467  00000-0  71151-3 0  9990,2 53637  53.2137 353.7361 0003795  21.3125  48.9393 15.73200537  9393,6727.894,91.533,352.31199999999984,347.205,0.0
53637.0,STARLINK-4396,PAYLOAD,2022-10-26 22:00:00,15.73291224,0.0003596,53.2139,352.0844,19.9938,139.2282,-0.00074774,-0.00104721,0.0,0 STARLINK-4396,1 53637U 22104BB  22299.91667824 -.00104721  00000-0 -74774-3 0  9999,2 53637  53.2139 352.0844 0003596  19.9938 139.2282 15.73291224  9447,6727.635,91.528,351.9190000000001,347.081,0.0
53637.0,STARLINK-4396,PAYLOAD,2022-10-27 14:00:01,15.73201196,0.0002753,53.2163,348.7811,345.245,351.9828,-0.0053733999999999,-0.0069577,0.0,0 STARLINK-4396,1 53637U 22104BB  22300.58335648 -.00695770  00000-0 -53734-2 0  9992,2 53637  53.2163 348.7811 0002753 345.2450 351.9828 15.73201196  9547,6727.892,91.533,351.6090000000001,347.905,0.0
53637.0,STARLINK-4396,PAYLOAD,2022-10-27 22:00:00,15.72715156,0.0004113,53.2175,347.12800000000016,292.2299,133.5831,-0.0089204,-0.01099631,0.0,0 STARLINK-4396,1 53637U 22104BB  22300.91667824 -.01099631  00000-0 -89204-2 0  9999,2 53637  53.2175 347.1280 0004113 292.2299 133.5831 15.72715156  1306,6729.278,91.561,353.911,348.375,0.0
53637.0,STARLINK-4396,PAYLOAD,2022-10-28 00:00:02,15.72525619,0.0004197,53.2172,346.7155,290.0509,247.8802,-0.0091902999999999,-0.01121211,0.0,0 STARLINK-4396,1 53637U 22104BB  22301.00002315 -.01121211  00000-0 -91903-2 0  9997,2 53637  53.2172 346.7155 0004197 290.0509 247.8802 15.72525619  9613,6729.819,91.572,354.5080000000001,348.8590000000001,0.0
53637.0,STARLINK-4396,PAYLOAD,2022-10-28 14:00:01,15.71112575,0.0006628999999999,53.2169,343.838,270.7789,329.8378,-0.0098881,-0.01135765,0.0,0 STARLINK-4396,1 53637U 22104BB  22301.58335648 -.01135765  00000-0 -98881-2 0  9999,2 53637  53.2169 343.8380 0006629 270.7789 329.8378 15.71112575  1303,6733.853,91.655,360.182,351.254,0.0
53637.0,STARLINK-4396,PAYLOAD,2022-10-28 22:00:01,15.70272939,0.0005074,53.2175,342.1916,268.3376,58.2002,-0.0098595,-0.01096334,0.0,0 STARLINK-4396,1 53637U 22104BB  22301.91668981 -.01096334  00000-0 -98595-2 0  9995,2 53637  53.2175 342.1916 0005074 268.3376  58.2002 15.70272939  1302,6736.253000000002,91.704,361.536,354.7,0.0
53637.0,STARLINK-4396,PAYLOAD,2022-10-29 12:00:00,15.68863337,0.0002798,53.2177,339.3224,272.3731,112.0797,-0.010706,-0.01118203,0.0,0 STARLINK-4396,1 53637U 22104BB  22302.50001157 -.01118203  00000-0 -10706-1 0  9994,2 53637  53.2177 339.3224 0002798 272.3731 112.0797 15.68863337  1309,6740.288000000001,91.786,364.039,360.267,0.0
53637.0,STARLINK-4396,PAYLOAD,2022-10-29 22:00:01,15.67850518,0.000121,53.2171,337.2738,53.9188,164.4703,-0.011244,-0.01143123,0.0,0 STARLINK-4396,1 53637U 22104BB  22302.91668981 -.01143123  00000-0 -11244-1 0  9990,2 53637  53.2171 337.2738 0001210  53.9188 164.4703 15.67850518  1301,6743.19,91.845,365.871,364.239,0.0
53637.0,STARLINK-4396,PAYLOAD,2022-10-30 00:00:00,15.67641081,0.0001123,53.2172,336.8638,55.1148,273.8031,-0.011254,-0.0113511,0.0,0 STARLINK-4396,1 53637U 22104BB  22303.00001157 -.01135110  00000-0 -11254-1 0  9995,2 53637  53.2172 336.8638 0001123  55.1148 273.8031 15.67641081  9927,6743.791,91.858,366.413,364.898,0.0
53637.0,STARLINK-4396,PAYLOAD,2022-10-30 14:00:01,15.66083357,0.0001152,53.2162,334.0069,62.5186,318.8877,-0.0098802,-0.00937853,0.0,0 STARLINK-4396,1 53637U 22104BB  22303.58334491 -.00937853  00000-0 -98802-2 0  9996,2 53637  53.2162 334.0069 0001152  62.5186 318.8877 15.66083357  1307,6748.262,91.949,370.904,369.349,0.0
53637.0,STARLINK-4396,PAYLOAD,2022-10-30 22:00:01,15.65403351,0.0001157,53.2174,332.3725,61.6667,39.783,-0.012309,-0.0113363,0.0,0 STARLINK-4396,1 53637U 22104BB  22303.91668981 -.01133630  00000-0 -12309-1 0  9996,2 53637  53.2174 332.3725 0001157  61.6667  39.7830 15.65403351  1306,6750.215999999999,91.989,372.862,371.3,0.0
53637.0,STARLINK-4396,PAYLOAD,2022-10-31 14:00:01,15.6377848,0.0001187,53.2167,329.1182,60.3753,198.1552,-0.0131639999999999,-0.0113582,0.0,0 STARLINK-4396,1 53637U 22104BB  22304.58334491 -.01135820  00000-0 -13164-1 0  9999,2 53637  53.2167 329.1182 0001187  60.3753 198.1552 15.63778480  1301,6754.891,92.085,377.5580000000001,375.954,0.0
53637.0,STARLINK-4396,PAYLOAD,2022-10-31 22:00:01,15.62961955,0.0001072,53.2174,327.4896,61.1792,274.5277,-0.013555,-0.01132616,0.0,0 STARLINK-4396,1 53637U 22104BB  22304.91668981 -.01132616  00000-0 -13555-1 0  9994,2 53637  53.2174 327.4896 0001072  61.1792 274.5277 15.62961955 10221,6757.244000000002,92.133,379.833,378.384,0.0
53637.0,STARLINK-4396,PAYLOAD,2022-11-01 14:00:01,15.61338954,0.0001338,53.2167,324.247,52.3543,74.5661,-0.014524,-0.01138254,0.0,0 STARLINK-4396,1 53637U 22104BB  22305.58334491 -.01138254  00000-0 -14524-1 0  9995,2 53637  53.2167 324.2470 0001338  52.3543  74.5661 15.61338954 10330,6761.925,92.229,384.695,382.886,0.0
53637.0,STARLINK-4396,PAYLOAD,2022-11-01 22:00:00,15.60521204,0.0001268,53.2172,322.6246,66.2889,134.8091,-0.0149039999999999,-0.01132139,0.0,0 STARLINK-4396,1 53637U 22104BB  22305.91667824 -.01132139  00000-0 -14904-1 0  9999,2 53637  53.2172 322.6246 0001268  66.2889 134.8091 15.60521204  1303,6764.288000000001,92.277,387.01,385.295,0.0
53637.0,STARLINK-4396,PAYLOAD,2022-11-02 14:00:01,15.58895859,0.0001112,53.2172,319.3931,56.7765,289.7341,-0.015896,-0.01134088,0.0,0 STARLINK-4396,1 53637U 22104BB  22306.58334491 -.01134088  00000-0 -15896-1 0  9990,2 53637  53.2172 319.3931 0001112  56.7765 289.7341 15.58895859 10486,6768.988,92.373,391.606,390.101,0.0
53637.0,STARLINK-4396,PAYLOAD,2022-11-02 22:00:00,15.58079878,0.0001156,53.2174,317.7773,57.7438,0.0102,-0.016364,-0.01132,0.0,0 STARLINK-4396,1 53637U 22104BB  22306.91667824 -.01132000  00000-0 -16364-1 0  9999,2 53637  53.2174 317.7773 0001156  57.7438   0.0102 15.58079878  1305,6771.352,92.421,393.999,392.434,0.0
53637.0,STARLINK-4396,PAYLOAD,2022-11-03 06:00:02,15.57277313,0.0001329,53.2169,316.1677,60.5735,67.5013,-0.0171039999999999,-0.01146342,0.0,0 STARLINK-4396,1 53637U 22104BB  22307.25002315 -.01146342  00000-0 -17104-1 0  9992,2 53637  53.2169 316.1677 0001329  60.5735  67.5013 15.57277313 10592,6773.678000000001,92.469,396.443,394.643,0.0
53637.0,STARLINK-4396,PAYLOAD,2022-11-03 14:00:01,15.56463027,0.0001513,53.2165,314.5584,51.3647,145.9304,-0.017626,-0.01145835,0.0,0 STARLINK-4396,1 53637U 22104BB  22307.58334491 -.01145835  00000-0 -17626-1 0  9996,2 53637  53.2165 314.5584 0001513  51.3647 145.9304 15.56463027  1303,6776.04,92.517,398.93,396.88,0.0
53637.0,STARLINK-4396,PAYLOAD,2022-11-04 00:00:00,15.55434467,0.0001250999999999,53.2176,312.5462,50.1129,322.42,-0.01802,-0.01129008,0.0,0 STARLINK-4396,1 53637U 22104BB  22308.00001157 -.01129008  00000-0 -18020-1 0  9997,2 53637  53.2176 312.5462 0001251  50.1129 322.4200 15.55434467  1301,6779.026999999999,92.579,401.74,400.044,0.0
53637.0,STARLINK-4396,PAYLOAD,2022-11-04 06:00:00,15.54825548,0.0001296,53.2175,311.3435,49.3973,283.5394,-0.018469,-0.01131098,0.0,0 STARLINK-4396,1 53637U 22104BB  22308.25001157 -.01131098  00000-0 -18469-1 0  9993,2 53637  53.2175 311.3435 0001296  49.3973 283.5394 15.54825548 10745,6780.797,92.615,403.541,401.783,0.0
53637.0,STARLINK-4396,PAYLOAD,2022-11-04 14:00:01,15.54012202,0.0001368,53.2171,309.7396,42.6959,356.5921,-0.019031,-0.01131097,0.0,0 STARLINK-4396,1 53637U 22104BB  22308.58334491 -.01131097  00000-0 -19031-1 0  9994,2 53637  53.2171 309.7396 0001368  42.6959 356.5921 15.54012202  1302,6783.163000000001,92.663,405.955,404.1,0.0
53637.0,STARLINK-4396,PAYLOAD,2022-11-04 22:00:01,15.53197646,0.0001403,53.2168,308.1367,50.8986,53.8289,-0.01961,-0.01131225,0.0,0 STARLINK-4396,1 53637U 22104BB  22308.91668981 -.01131225  00000-0 -19610-1 0  9991,2 53637  53.2168 308.1367 0001403  50.8986  53.8289 15.53197646 10859,6785.534000000002,92.712,408.351,406.447,0.0
53637.0,STARLINK-4396,PAYLOAD,2022-11-05 00:00:00,15.52993803,0.0001416999999999,53.2173,307.7359,60.0617,150.7916,-0.019702,-0.01128407,0.0,0 STARLINK-4396,1 53637U 22104BB  22309.00001157 -.01128407  00000-0 -19702-1 0  9998,2 53637  53.2173 307.7359 0001417  60.0617 150.7916 15.52993803  1302,6786.128000000002,92.724,408.954,407.031,0.0
53637.0,STARLINK-4396,PAYLOAD,2022-11-05 14:00:01,15.51586909,0.0001404,53.2161,304.9403,58.2765,174.2556,-0.021243,-0.0115337,0.0,0 STARLINK-4396,1 53637U 22104BB  22309.58335648 -.01153370  00000-0 -21243-1 0  9996,2 53637  53.2161 304.9403 0001404  58.2765 174.2556 15.51586909  1302,6790.229,92.808,413.048,411.141,0.0
53637.0,STARLINK-4396,PAYLOAD,2022-11-05 22:00:01,15.50631724,0.0001484,53.2163,303.3427,63.6529,231.3486,-0.014382,-0.00772035,0.0,0 STARLINK-4396,1 53637U 22104BB  22309.91668981 -.00772035  00000-0 -14382-1 0  9992,2 53637  53.2163 303.3427 0001484  63.6529 231.3486 15.50631724 11009,6793.017,92.865,415.891,413.874,0.0
53637.0,STARLINK-4396,PAYLOAD,2022-11-06 06:00:00,15.49960788,0.0001382,53.2168,301.7497,83.1173,273.3046,-0.0021801,-0.00122595,0.0,0 STARLINK-4396,1 53637U 22104BB  22310.25001157 -.00122595  00000-0 -21801-2 0  9992,2 53637  53.2168 301.7497 0001382  83.1173 273.3046 15.49960788 11058,6794.978,92.906,417.782,415.904,0.0
